BEIDOU-3 G1             
1 43683U 18085A   26192.73915603 -.00000107  00000+0  00000+0 0  9997
2 43683   2.9269  96.7211 0008090 355.5910 263.3755  1.00272743 28305
GSAT-29                 
1 43698U 18089A   26192.90738978  .00000088  00000+0  00000+0 0  9991
2 43698   0.0551 248.5462 0002975 195.5066 227.5040  1.00274746 28033
ES'HAIL 2               
1 43700U 18090A   26192.85600355  .00000000  00000+0  00000+0 0  9992
2 43700   0.0268  42.8393 0002180 117.1715 103.7059  1.00269418 27921
GEO-KOMPSAT-2A          
1 43823U 18100A   26192.80416251 -.00000339  00000+0  00000+0 0  9991
2 43823   0.0255 118.0813 0001946 343.4761 245.9138  1.00271415 27871
GSAT-11                 
1 43824U 18100B   26192.89247231 -.00000073  00000+0  00000+0 0  9996
2 43824   0.0597 260.7584 0007653 196.4521 227.8801  1.00270879 27725
GSAT-7A                 
1 43864U 18105A   26192.90183788  .00000031  00000+0  00000+0 0  9996
2 43864   0.0760  91.9878 0001639  17.4480 207.7803  1.00270206 27694
COSMOS 2533             
1 43867U 18107A   26193.07779486 -.00000035  00000+0  00000+0 0  9991
2 43867   0.0385 112.9801 0000971 137.9005 137.0845  1.00269314 27698
TJS-3                   
1 43874U 18110A   26192.73478476 -.00000214  00000+0  00000+0 0  9999
2 43874   2.6053  80.1959 0002491  89.3252 172.8513  1.00272571 27664
ZHONGXING-2D            
1 43920U 19001A   26192.80450918 -.00000333  00000+0  00000+0 0  9992
2 43920   0.0587 242.3301 0000405  95.8001  11.1777  1.00272544 54320
HELLAS-SAT 4 & SGS-1    
1 44034U 19007A   26192.57241964  .00000158  00000+0  00000+0 0  9992
2 44034   0.0672 126.5517 0005726  21.4154  26.5970  1.00271241 27619
GSAT-31                 
1 44035U 19007B   26192.94544488  .00000000  00000+0  00000+0 0  9997
2 44035   0.0244  64.1420 0000869 169.2395  84.7119  1.00269489 27214
NUSANTARA SATU          
1 44048U 19009A   26192.18517010 -.00000228  00000+0  00000+0 0  9993
2 44048   0.0336 125.8641 0004538   1.8585  14.0358  1.00270084 27011
ZHONGXING-6C            
1 44067U 19012A   26192.87591150 -.00000331  00000+0  00000+0 0  9996
2 44067   0.0823  73.5645 0014589 339.8557 322.1383  1.00272511 26989
WGS 10 (USA 291)        
1 44071U 19014A   26192.22042770  .00000054  00000+0  00000+0 0  9992
2 44071   0.0187  42.5463 0000266 213.5559 172.6870  1.00271919 26854
TIANLIAN 2-01           
1 44076U 19017A   26192.86533812 -.00000103  00000+0  00000+0 0  9998
2 44076   0.6009  83.0628 0001432  79.8499 155.3965  1.00270856 26899
ARABSAT-6A              
1 44186U 19021A   26192.92961583  .00000157  00000+0  00000+0 0  9990
2 44186   0.0465  16.1590 0001352 256.8220  22.0417  1.00276880 26408
BEIDOU-3 IGSO-1         
1 44204U 19023A   26192.58767623 -.00000206  00000+0  00000+0 0  9990
2 44204  58.7293  37.3991 0025626 224.0790 358.6331  1.00284023  7452
BEIDOU-2 G8             
1 44231U 19027A   26192.87868485 -.00000245  00000+0  00000+0 0  9997
2 44231   1.7169  74.5075 0009769 282.6558  33.4593  1.00272787 26329
YAMAL 601               
1 44307U 19031A   26193.07363483  .00000123  00000+0  00000+0 0  9991
2 44307   0.0168  61.1970 0002228  45.2761 259.0106  1.00269768 26176
AT&T T-16               
1 44333U 19034A   26192.82998929 -.00000111  00000+0  00000+0 0  9992
2 44333   0.0123  64.3040 0000874 263.5194 159.8474  1.00269960 25885
EUTELSAT 7C             
1 44334U 19034B   26192.07752973  .00000056  00000+0  00000+0 0  9994
2 44334   0.0768 180.6935 0003303 279.2014 224.0246  1.00273692  7071
BEIDOU-3 IGSO-2         
1 44337U 19035A   26192.95126816 -.00000109  00000+0  00000+0 0  9996
2 44337  55.2507 158.6460 0039635 216.4381  15.9219  1.00258468 25916
COSMOS 2539             
1 44457U 19048A   26192.35342635  .00000088  00000+0  00000+0 0  9991
2 44457   0.0348 100.7791 0000324  62.3089 265.3995  1.00273545 25466
EDRS-C                  
1 44475U 19049A   26192.87833818 -.00000258  00000+0  00000+0 0  9997
2 44475   0.0220  83.8333 0000844  44.7924 259.8480  1.00271968 25450
INTELSAT 39 (IS-39)     
1 44476U 19049B   26192.43465111  .00000000  00000+0  00000+0 0  9991
2 44476   0.0278  39.2819 0000889 281.8876 186.5962  1.00270150 25371
AMOS-17                 
1 44479U 19050A   26192.85341053  .00000113  00000+0  00000+0 0  9995
2 44479   0.0155 358.2715 0001295 118.8454 136.8436  1.00272214 25434
AEHF-5 (USA 292)        
1 44481U 19051A   26192.86854480 -.00000252  00000+0  00000+0 0  9998
2 44481   1.4344 338.1120 0065003 357.7953 359.5619  1.00274830 25505
EUTELSAT 5 WEST B       
1 44624U 19067A   26192.84899052 -.00000038  00000+0  00000+0 0  9998
2 44624   0.0626 351.2134 0002990 121.3212 117.8462  1.00271396 24685
MEV-1                   
1 44625U 19067B   26167.92963140 -.00000149  00000+0  00000+0 0  9993
2 44625   0.8740 268.9828 0002794 179.8034 307.2103  1.00269616 61744
TJS-4                   
1 44637U 19070A   26192.72539227 -.00000165  00000+0  00000+0 0  9999
2 44637   0.0749  87.0573 0003227 320.5999 226.6438  1.00269602 24785
TIBA-1                  
1 44800U 19080A   26192.92961583  .00000159  00000+0  00000+0 0  9990
2 44800   0.0503   6.1761 0001848 119.1272 174.6735  1.00269091 24301
INMARSAT GX5            
1 44801U 19080B   26192.85228387  .00000079  00000+0  00000+0 0  9992
2 44801   0.0419  32.3110 0001969  75.7026 139.5834  1.00272433  7030
